STARLINK-11275 [DTC]    
1 61579U 24187F   26167.18483015 -.00000464  00000+0  10304-5 0  9999
2 61579  53.1590 170.4494 0001064  85.5978 274.5161 15.69712292 96178
STARLINK-11342 [DTC]    
1 61580U 24187G   26167.17991800 -.00004131  00000+0 -29237-4 0  9996
2 61580  53.1584 170.4127 0000892  65.9099 294.2012 15.69730133 96279
STARLINK-11374 [DTC]    
1 61581U 24187H   26167.17512125 -.00000457  00000+0  10847-5 0  9990
2 61581  53.1592 171.1137 0000930  96.6930 263.4194 15.69712114 96263
STARLINK-11373 [DTC]    
1 61582U 24187J   26167.17020619 -.00005929  00000+0 -44061-4 0  9997
2 61582  53.1597 171.0849 0000909  80.4867 279.6254 15.69740811 96210
STARLINK-11368 [DTC]    
1 61583U 24187K   26167.16530693  .00001639  00000+0  18386-4 0  9998
2 61583  53.1604 171.0501 0001361 108.0078 252.1088 15.69711019 96162
STARLINK-11370 [DTC]    
1 61584U 24187L   26167.16040022  .00001244  00000+0  15122-4 0  9998
2 61584  53.1589 171.0162 0001049  92.5210 267.5928 15.69710132 96210
STARLINK-11361 [DTC]    
1 61585U 24187M   26167.15549698  .00161990  00000+0  13111-2 0  9990
2 61585  53.1562 170.9846 0002022 142.5698 217.5461 15.69799466 96211
STARLINK-11360 [DTC]    
1 61586U 24187N   26166.32289864  .00001855  00000+0  20181-4 0  9995
2 61586  53.1602 175.0323 0001320  90.9577 269.1592 15.69693753 96136
STARLINK-32353          
1 61587U 24187P   26167.17170270  .00025443  00000+0  76099-3 0  9997
2 61587  53.1614 326.0309 0001045  20.5477 339.5568 15.34425253 94126
STARLINK-32325          
1 61588U 24187Q   26166.73468799  .00001658  00000+0  60207-4 0  9992
2 61588  53.1614 328.2946 0000919 124.0279 236.0811 15.34390066 94111
STARLINK-32416          
1 61589U 24187R   26166.70247771  .00002180  00000+0  75672-4 0  9998
2 61589  53.1620 313.8807 0001617 114.9482 245.1688 15.34382751 94312
STARLINK-32413          
1 61590U 24187S   26167.13812855 -.00000152  00000+0  66422-5 0  9991
2 61590  53.1609 326.5361 0001110  95.1834 264.9295 15.34389041 94172
STARLINK-32409          
1 61591U 24187T   26167.11853664  .00000402  00000+0  23019-4 0  9994
2 61591  53.1624 312.2064 0000742  84.4487 275.6601 15.34389875 94374
STARLINK-32422          
1 61592U 24187U   26167.10591764 -.00000104  00000+0  80456-5 0  9993
2 61592  53.1621 312.1261 0001067  98.7213 261.3911 15.34389096 94377
STARLINK-32397          
1 61593U 24187V   26166.73410750  .00000105  00000+0  14258-4 0  9993
2 61593  53.1623 326.1563 0001550 136.3065 223.8060 15.34392463 94146
ONEWEB-0015             
1 61594U 24188A   26167.08870132 -.00000625  00000+0 -17988-2 0  9998
2 61594  87.8886  21.3120 0002195  74.1256 286.0114 13.11417124 84316
ONEWEB-0687             
1 61595U 24188B   26167.09173861  .00000064  00000+0  13248-3 0  9996
2 61595  87.9129   6.0946 0002336  87.3041 272.8357 13.17648419 85759
ONEWEB-0688             
1 61596U 24188C   26167.04449078  .00000047  00000+0  87186-4 0  9992
2 61596  87.9129   6.1039 0002727  65.2961 294.8454 13.17648759 85742
ONEWEB-0689             
1 61597U 24188D   26166.97002852  .00000595  00000+0  16432-2 0  9991
2 61597  87.8902  21.2932 0002047  91.6254 268.5108 13.11418478 84294
ONEWEB-0690             
1 61598U 24188E   26167.13280190  .00000397  00000+0  10835-2 0  9995
2 61598  87.8895  21.2726 0001242  71.7922 288.3341 13.11414430 84499
ONEWEB-0691             
1 61599U 24188F   26166.97512999  .00000438  00000+0  12000-2 0  9994
2 61599  87.8905  21.2126 0002134  79.2541 280.8827 13.11415507 84321
ONEWEB-0692             
1 61600U 24188G   26167.14805054 -.00000246  00000+0 -72998-3 0  9996
2 61600  87.8885  21.2916 0001845 111.0794 249.0532 13.11414003 84332
ONEWEB-0693             
1 61601U 24188H   26166.98036362  .00000026  00000+0  32945-4 0  9999
2 61601  87.9123   6.1367 0001323  65.1894 294.9375 13.17647940 85724
ONEWEB-0695             
1 61602U 24188J   26166.97173691  .00000500  00000+0  13747-2 0  9990
2 61602  87.8885  21.3186 0002039  99.8021 260.3337 13.11415338 84304
ONEWEB-0697             
1 61603U 24188K   26167.15652303 -.00000489  00000+0 -14160-2 0  9992
2 61603  87.8886  21.2719 0001739 110.5552 249.5763 13.11415210 84315
ONEWEB-0698             
1 61604U 24188L   26167.13449479  .00000326  00000+0  88492-3 0  9997
2 61604  87.8883  21.2906 0000881 118.5265 241.5951 13.11414156 84338
ONEWEB-0699             
1 61605U 24188M   26167.14650770  .00000067  00000+0  15622-3 0  9994
2 61605  87.8838  36.4736 0001581 103.9844 256.1459 13.10376675 83175
ONEWEB-0700             
1 61606U 24188N   26167.14816762  .00000253  00000+0  68932-3 0  9999
2 61606  87.8854  36.3820 0001954 103.1526 256.9820 13.10376710 83169
ONEWEB-0701             
1 61607U 24188P   26167.16477764  .00000664  00000+0  18670-2 0  9996
2 61607  87.8836  36.4692 0001584 109.8490 250.2808 13.10373029 83174
ONEWEB-0702             
1 61608U 24188Q   26167.10397291  .00000051  00000+0  10794-3 0  9997
2 61608  87.8905  21.2024 0002041 115.5974 244.5365 13.11420344 84341
