OBJECT_NAME,OBJECT_ID,EPOCH,MEAN_MOTION,ECCENTRICITY,INCLINATION,RA_OF_ASC_NODE,ARG_OF_PERICENTER,MEAN_ANOMALY,EPHEMERIS_TYPE,CLASSIFICATION_TYPE,NORAD_CAT_ID,ELEMENT_SET_NO,REV_AT_EPOCH,BSTAR,MEAN_MOTION_DOT,MEAN_MOTION_DDOT
STARLINK-11275 [DTC],2024-187F,2026-06-16T04:26:09.324960,15.69712292,.0001064,53.1590,170.4494,85.5978,274.5161,0,U,61579,999,9617,.10304E-5,-.464E-5,0
STARLINK-11342 [DTC],2024-187G,2026-06-16T04:19:04.915200,15.69730133,.0000892,53.1584,170.4127,65.9099,294.2012,0,U,61580,999,9627,-.29237E-4,-.4131E-4,0
STARLINK-11374 [DTC],2024-187H,2026-06-16T04:12:10.476000,15.69712114,.000093,53.1592,171.1137,96.6930,263.4194,0,U,61581,999,9626,.10847E-5,-.457E-5,0
STARLINK-11373 [DTC],2024-187J,2026-06-16T04:05:05.814816,15.69740811,.0000909,53.1597,171.0849,80.4867,279.6254,0,U,61582,999,9621,-.44061E-4,-.5929E-4,0
STARLINK-11368 [DTC],2024-187K,2026-06-16T03:58:02.518752,15.69711019,.0001361,53.1604,171.0501,108.0078,252.1088,0,U,61583,999,9616,.18386E-4,.1639E-4,0
STARLINK-11370 [DTC],2024-187L,2026-06-16T03:50:58.579008,15.69710132,.0001049,53.1589,171.0162,92.5210,267.5928,0,U,61584,999,9621,.15122E-4,.1244E-4,0
STARLINK-11361 [DTC],2024-187M,2026-06-16T03:43:54.939072,15.69799466,.0002022,53.1562,170.9846,142.5698,217.5461,0,U,61585,999,9621,.13111E-2,.16199E-2,0
STARLINK-11360 [DTC],2024-187N,2026-06-15T07:44:58.442496,15.69693753,.00013206,53.1602,175.0323,90.9577,269.1592,0,U,61586,999,9613,.20181027E-4,.1855E-4,0
STARLINK-32353,2024-187P,2026-06-16T04:07:15.113280,15.34425253,.0001045,53.1614,326.0309,20.5477,339.5568,0,U,61587,999,9412,.76099E-3,.25443E-3,0
STARLINK-32325,2024-187Q,2026-06-15T17:37:57.042336,15.34390066,.00009192,53.1614,328.2946,124.0279,236.0811,0,U,61588,999,9411,.60206763E-4,.1658E-4,0
STARLINK-32416,2024-187R,2026-06-15T16:51:34.074144,15.34382751,.00016177,53.1620,313.8807,114.9482,245.1688,0,U,61589,999,9431,.75672058E-4,.218E-4,0
STARLINK-32413,2024-187S,2026-06-16T03:18:54.306720,15.34389041,.000111,53.1609,326.5361,95.1834,264.9295,0,U,61590,999,9417,.66422E-5,-.152E-5,0
STARLINK-32409,2024-187T,2026-06-16T02:50:41.565696,15.34389875,.0000742,53.1624,312.2064,84.4487,275.6601,0,U,61591,999,9437,.23019E-4,.402E-5,0
STARLINK-32422,2024-187U,2026-06-16T02:32:31.284096,15.34389096,.0001067,53.1621,312.1261,98.7213,261.3911,0,U,61592,999,9437,.80456E-5,-.104E-5,0
STARLINK-32397,2024-187V,2026-06-15T17:37:06.888000,15.34392463,.00015505,53.1623,326.1563,136.3065,223.8060,0,U,61593,999,9414,.14258175E-4,.105E-5,0
ONEWEB-0015,2024-188A,2026-06-16T02:07:43.794048,13.11417124,.0002195,87.8886,21.3120,74.1256,286.0114,0,U,61594,999,8431,-.17988E-2,-.625E-5,0
ONEWEB-0687,2024-188B,2026-06-16T02:12:06.215904,13.17648419,.0002336,87.9129,6.0946,87.3041,272.8357,0,U,61595,999,8575,.13248E-3,.64E-6,0
ONEWEB-0688,2024-188C,2026-06-16T01:04:04.003392,13.17648759,.0002727,87.9129,6.1039,65.2961,294.8454,0,U,61596,999,8574,.87186E-4,.47E-6,0
ONEWEB-0689,2024-188D,2026-06-15T23:16:50.464128,13.11418478,.0002047,87.8902,21.2932,91.6254,268.5108,0,U,61597,999,8429,.16432E-2,.595E-5,0
ONEWEB-0690,2024-188E,2026-06-16T03:11:14.084160,13.11414430,.0001242,87.8895,21.2726,71.7922,288.3341,0,U,61598,999,8449,.10835E-2,.397E-5,0
ONEWEB-0691,2024-188F,2026-06-15T23:24:11.231136,13.11415507,.0002134,87.8905,21.2126,79.2541,280.8827,0,U,61599,999,8432,.12E-2,.438E-5,0
ONEWEB-0692,2024-188G,2026-06-16T03:33:11.566656,13.11414003,.0001845,87.8885,21.2916,111.0794,249.0532,0,U,61600,999,8433,-.72998E-3,-.246E-5,0
ONEWEB-0693,2024-188H,2026-06-15T23:31:43.416768,13.17647940,.0001323,87.9123,6.1367,65.1894,294.9375,0,U,61601,999,8572,.32945E-4,.26E-6,0
ONEWEB-0695,2024-188J,2026-06-15T23:19:18.069024,13.11415338,.0002039,87.8885,21.3186,99.8021,260.3337,0,U,61602,999,8430,.13747E-2,.5E-5,0
ONEWEB-0697,2024-188K,2026-06-16T03:45:23.589792,13.11415210,.0001739,87.8886,21.2719,110.5552,249.5763,0,U,61603,999,8431,-.1416E-2,-.489E-5,0
ONEWEB-0698,2024-188L,2026-06-16T03:13:40.349856,13.11414156,.0000881,87.8883,21.2906,118.5265,241.5951,0,U,61604,999,8433,.88492E-3,.326E-5,0
ONEWEB-0699,2024-188M,2026-06-16T03:30:58.265280,13.10376675,.0001581,87.8838,36.4736,103.9844,256.1459,0,U,61605,999,8317,.15622E-3,.67E-6,0
ONEWEB-0700,2024-188N,2026-06-16T03:33:21.682368,13.10376710,.0001954,87.8854,36.3820,103.1526,256.9820,0,U,61606,999,8316,.68932E-3,.253E-5,0
ONEWEB-0701,2024-188P,2026-06-16T03:57:16.788096,13.10373029,.0001584,87.8836,36.4692,109.8490,250.2808,0,U,61607,999,8317,.1867E-2,.664E-5,0
ONEWEB-0702,2024-188Q,2026-06-16T02:29:43.259424,13.11420344,.0002041,87.8905,21.2024,115.5974,244.5365,0,U,61608,999,8434,.10794E-3,.51E-6,0
